COSMOS 1892             
1 18421U 87088A   21232.36347061  .00000809  00000-0  38371-4 0  9990
2 18421  82.4998 208.8612 0015391  22.4647 337.7257 15.17761139849599
SL-14 R/B               
1 18749U 88001B   21232.19776413  .00000074  00000-0  60871-5 0  9992
2 18749  82.5159 315.8375 0017888 329.4520  53.0863 14.83269995795428
COSMOS 1933             
1 18958U 88020A   21232.29983585  .00000779  00000-0  54299-4 0  9994
2 18958  82.5271  71.4083 0012544 127.1345 233.1029 15.03974482799536
SL-3 R/B                
1 19046U 88032B   21232.45278575  .00000240  00000-0  21951-4 0  9992
2 19046  97.3856 240.0474 0036760 183.4855 176.6121 15.02970559801395
SL-16 R/B               
1 19120U 88039B   21232.28419017  .00000035  00000-0  39663-4 0  9992
2 19120  71.0171 342.3759 0021762   3.7242 356.4040 14.19224705722492
COSMOS 1953             
1 19210U 88050A   21232.29510038  .00000553  00000-0  35527-4 0  9991
2 19210  82.5201 353.4512 0014213  94.3300 265.9552 15.06349984786213
SL-8 R/B                
1 19257U 88053B   21232.12560786  .00000065  00000-0  30261-4 0  9990
2 19257  74.0485 292.7365 0020034 168.9861 210.7704 14.37528873737608
COSMOS 1975             
1 19573U 88093A   21232.18374171 -.00000016  00000-0 -31838-5 0  9992
2 19573  82.5211 308.8049 0015349 137.6387 222.6028 15.05243210767954
SL-14 R/B               
1 19574U 88093B   21232.46753557  .00000065  00000-0  49406-5 0  9995
2 19574  82.5345 158.8715 0022836 124.8895  37.0798 14.83380937754464
SL-16 R/B               
1 19650U 88102B   21232.20471490 -.00000280  00000-0 -11778-3 0  9996
2 19650  70.9998  48.3261 0013718  12.4590 347.6869 14.15808408691569
INTERCOSMOS 24          
1 20261U 89080A   21232.24218143 -.00000121  00000-0 -42854-4 0  9994
2 20261  82.6010 102.7929 1202335 178.3077 182.2710 12.56210415457834
SL-14 R/B               
1 20262U 89080C   21232.23406439  .00000081  00000-0  18189-4 0  9998
2 20262  82.5961 159.2871 1237691  19.5153 344.9268 12.48977908452519
DELTA 2 R/B(1)          
1 20303U 89085B   21232.30912052  .00003185  00000-0  98050-4 0  9993
2 20303  35.6414 192.2755 0088491  34.3846 326.2568 15.29646467734255
DELTA 1 R/B             
1 20323U 89089B   21232.16449464  .00000016  00000-0  13464-4 0  9991
2 20323  97.1212 316.5531 0070692 323.5110  36.1281 14.48413118654929
ARIANE 40 R/B           
1 20443U 90005H   21232.44690939  .00000017  00000-0  20217-4 0  9995
2 20443  98.5245 298.2381 0011262 139.9540 220.2479 14.38139149653771
DELTA 2 R/B(1)          
1 20453U 90008B   21232.46178528  .00001741  00000-0  96500-4 0  9999
2 20453  35.6247 244.4181 0276971 289.1954  67.8982 14.86761117675052
COSMOS 2058             
1 20465U 90010A   21232.38619119  .00000340  00000-0  26291-4 0  9996
2 20465  82.4878 220.5194 0015034 188.8130 171.2831 14.98254421692540
SL-14 R/B               
1 20466U 90010B   21232.38721650  .00000068  00000-0  56519-5 0  9995
2 20466  82.5034  25.3388 0020787  12.7512 347.4223 14.81433701682231
SL-14 R/B               
1 20511U 90018B   21232.42029906  .00000063  00000-0  52208-5 0  9990
2 20511  82.5258 333.6130 0018299 146.9098 258.5307 14.80088081676564
HST                     
1 20580U 90037B   21232.36512157  .00000545  00000-0  21966-4 0  9996
2 20580  28.4710   2.1752 0002836  34.8121 354.1372 15.09707818520664
SL-16 R/B               
1 20625U 90046B   21232.14502775  .00000000  00000-0  24930-4 0  9997
2 20625  70.9980 188.3794 0015962 305.5191  54.4442 14.14666878613247
COSMOS 2084             
1 20663U 90055A   21232.27677758  .00000124  00000-0  29667-4 0  9996
2 20663  62.7938 176.1599 0079833  15.6946 344.6594 14.92287363687341
SL-6 R/B(2)             
1 20666U 90055D   21232.32494405  .00000070  00000-0  24242-4 0  9995
2 20666  62.7843  91.3374 0106104  41.9430 318.9728 14.92540647689308
SL-8 R/B                
1 20775U 90078B   21232.42663369  .00002187  00000-0  10581-3 0  9990
2 20775  82.9238 232.4068 0564549 304.1987  50.6906 14.36254388567272
SL-8 R/B                
1 21088U 91006B   21232.25804039  .00000025  00000-0  95513-5 0  9991
2 21088  82.9453 326.4090 0022757  14.1922  14.7285 13.77175545535238
OKEAN-3                 
1 21397U 91039A   21232.17311054  .00000234  00000-0  19876-4 0  9990
2 21397  82.5226 129.1318 0017844 169.6796 190.4795 14.93140356616219
COSMOS 2151             
1 21422U 91042A   21232.28576915  .00000186  00000-0  15741-4 0  9997
2 21422  82.4982 234.6152 0012753 236.7358 123.2641 14.92283901614763
SL-14 R/B               
1 21423U 91042B   21232.22642102  .00000058  00000-0  47263-5 0  9997
2 21423  82.4967 336.1539 0016204 296.8209  63.1346 14.79837276607076
ERS-1                   
1 21574U 91050A   21232.31108946  .00000022  00000-0  22011-4 0  9990
2 21574  98.6524 193.2297 0034164  92.0406 268.4694 14.37809818576744
ARIANE 40 R/B           
1 21610U 91050F   21232.18930067  .00000011  00000-0  17067-4 0  9996
2 21610  98.4196 301.9792 0004214  64.3478 312.8091 14.40959865579447
INTERCOSMOS 25          
1 21819U 91086A   21232.44220978  .00000530  00000-0  98770-4 0  9994
2 21819  82.5788 229.1969 1517202  77.7581 298.8725 12.05278826295965
SL-8 R/B                
1 21876U 92008B   21232.30548135 -.00000028  00000-0 -44922-4 0  9999
2 21876  82.9237  63.6685 0036098  96.4020  75.8890 13.75682721480830
SL-8 R/B                
1 21938U 92020B   21232.33859779  .00000015  00000-0  42585-6 0  9993
2 21938  82.9308 308.1506 0027947 256.1626 147.6518 13.75292322472624
COSMOS 2219             
1 22219U 92076A   21232.30520512  .00000323  00000-0  19555-3 0  9994
2 22219  71.0578 251.8318 0019497 223.8574 136.1001 14.13665303483419
SL-16 R/B               
1 22220U 92076B   21232.39451377  .00000185  00000-0  11677-3 0  9990
2 22220  70.9994  88.6303 0010837 112.2698  60.9457 14.16472093486415
COSMOS 2221             
1 22236U 92080A   21232.38611486  .00000203  00000-0  19347-4 0  9994
2 22236  82.5057  58.3085 0016118 343.0209  17.0467 14.88085508533059
SL-16 R/B               
1 22285U 92093B   21232.31748386  .00000195  00000-0  12493-3 0  9999
2 22285  71.0188 252.7867 0005787 305.3800  54.6782 14.15061364477965
COSMOS 2228             
1 22286U 92094A   21232.34219408  .00000204  00000-0  19263-4 0  9996
2 22286  82.5213  15.0981 0022632  96.1960 264.1837 14.88310625528232
SL-16 R/B               
1 22566U 93016B   21232.36906754 -.00000253  00000-0 -10612-3 0  9995
2 22566  71.0077 105.4127 0011790 322.8457  37.1849 14.14977016467003
COSMOS 2242             
1 22626U 93024A   21232.42972547  .00000212  00000-0  20224-4 0  9995
2 22626  82.5205  43.3215 0020436  96.0173 264.3374 14.88160827532634
SL-16 R/B               
1 22803U 93059B   21232.37468377  .00000233  00000-0  14008-3 0  9990
2 22803  70.9888 275.3410 0018846 227.8647 132.0876 14.16840177444055
ARIANE 40 R/B           
1 22830U 93061H   21232.19828032 -.00000007  00000-0  14113-4 0  9999
2 22830  98.7088 289.9527 0011718 140.6137 219.5900 14.31488114456162
COSMOS 2278             
1 23087U 94023A   21232.21526160 -.00000297  00000-0 -13166-3 0  9991
2 23087  71.0540  51.4512 0007457  32.1735 327.9841 14.13834249409793
SL-16 R/B               
1 23088U 94023B   21232.24637881 -.00000313  00000-0 -13800-3 0  9992
2 23088  71.0014 321.1096 0005604 290.2707  69.7813 14.14691298410958
SL-16 R/B               
1 23343U 94074B   21232.44162339  .00000022  00000-0  10337-4 0  9993
2 23343  97.9410 286.0809 0006363 197.0409 173.6016 14.76894893441730
SL-16 R/B               
1 23405U 94077B   21232.30657836  .00000180  00000-0  11700-3 0  9990
2 23405  70.9801 248.7307 0003111 213.0790 147.0138 14.15240149381018
ERS-2                   
1 23560U 95021A   21232.34747007  .00000981  00000-0  44068-4 0  9999
2 23560  98.5419  91.3494 0004171 133.7380 226.4200 15.24120373407423
ARIANE 40+ R/B          
1 23561U 95021B   21232.40868971  .00000029  00000-0  24571-4 0  9991
2 23561  98.6697 282.8151 0007964  66.2485 304.4333 14.38040491380227
SL-16 R/B               
1 23705U 95058B   21232.29399655  .00000274  00000-0  16564-3 0  9990
2 23705  71.0217  69.1805 0011082 140.6702 219.5228 14.15153018332644
SL-16 R/B               
1 24298U 96051B   21232.32151265 -.00000153  00000-0 -56303-4 0  9993
2 24298  70.8255  86.2252 0013236  75.0034 285.2550 14.12425395286912
ORBVIEW 2 (SEASTAR)     
1 24883U 97037A   21232.28992310  .00000036  00000-0  29151-4 0  9996
2 24883  98.6488 350.3054 0001196 283.3865  76.7185 14.33628481270151
SL-16 R/B               
1 25400U 98043G   21232.23758833 -.00000023  00000-0  86556-5 0  9995
2 25400  98.6409 167.1516 0010205 159.6611 200.4977 14.25480662202105
SL-16 R/B               
1 25407U 98045B   21232.26212223  .00000034  00000-0  41695-4 0  9990
2 25407  71.0103  76.3883 0006361  24.8506 335.2923 14.15838823191773
ISS (ZARYA)             
1 25544U 98067A   21232.56369815  .00001292  00000-0  31665-4 0  9992
2 25544  51.6440  24.3628 0001513 335.8493 142.2476 15.48921672298574
CZ-4B R/B               
1 25732U 99025C   21232.35862705 -.00000006  00000-0  18987-4 0  9994
2 25732  98.8982 268.9436 0038325  68.1481 302.9228 14.17697679152597
OKEAN-O                 
1 25860U 99039A   21232.35843118  .00000054  00000-0  15302-4 0  9998
2 25860  98.1793 263.9679 0000912  75.2454 284.8856 14.76753453188813
SL-16 R/B               
1 25861U 99039B   21232.29329486  .00000029  00000-0  11507-4 0  9994
2 25861  98.2034 248.8960 0014788 216.7355 153.8165 14.78656591190993
DELTA 2 R/B             
1 25876U 99041E   21232.23663881  .00000115  00000-0  60407-4 0  9996
2 25876  51.7646  57.4158 0531668 154.7270 208.0715 14.04605478128883
HELIOS 1B               
1 25977U 99064A   21232.20793400  .00000059  00000-0  14499-4 0  9998
2 25977  98.3207  49.2494 0002335  67.2483 292.8975 14.82574697438646
